{"type": "FeatureCollection", "features": [ {"type": "Feature", "properties": {"norad_id": 37834, "name": "INTELSAT 18 (IS-18)", "group": "intelsat", "lat": -0.031764253764263485, "lon": -153.59109319458932, "alt_km": 35781.06345638522, "timestamp": "2025-12-07T20:38:13.745221+00:00", "meta": {"OBJECT_NAME": "INTELSAT 18 (IS-18)", "OBJECT_ID": "2011-056A", "EPOCH": "2025-12-07T04:13:09.075936", "MEAN_MOTION": 1.00271911, "ECCENTRICITY": 0.00021384, "INCLINATION": 0.0167, "RA_OF_ASC_NODE": 328.3083, "ARG_OF_PERICENTER": 295.1268, "MEAN_ANOMALY": 56.0568, "EPHEMERIS_TYPE": 0, "CLASSIFICATION_TYPE": "U", "NORAD_CAT_ID": 37834, "ELEMENT_SET_NO": 999, "REV_AT_EPOCH": 5188, "BSTAR": 0, "MEAN_MOTION_DOT": 5.8e-07, "MEAN_MOTION_DDOT": 0}, "tle": {"line1": "1 37834U 11056A   25341.17579949  .00000058  00000+0  00000+0 0  9995", "line2": "2 37834   0.0167 328.3083 0002138 295.1268  56.0568  1.00271911 51889"}}, "geometry": {"type": "Point", "coordinates": [-153.59109319458932, -0.031764253764263485]}}, {"type": "Feature", "properties": {"norad_id": 38098, "name": "INTELSAT 22 (IS-22)", "group": "intelsat", "lat": 0.0254079849629691, "lon": 98.53031851427673, "alt_km": 35793.49167289702, "timestamp": "2025-12-07T20:38:13.745233+00:00", "meta": {"OBJECT_NAME": "INTELSAT 22 (IS-22)", "OBJECT_ID": "2012-011A", "EPOCH": "2025-12-07T03:27:38.581920", "MEAN_MOTION": 1.0027115, "ECCENTRICITY": 0.00017495, "INCLINATION": 0.0103, "RA_OF_ASC_NODE": 33.7815, "ARG_OF_PERICENTER": 232.7098, "MEAN_ANOMALY": 293.6994, "EPHEMERIS_TYPE": 0, "CLASSIFICATION_TYPE": "U", "NORAD_CAT_ID": 38098, "ELEMENT_SET_NO": 999, "REV_AT_EPOCH": 526, "BSTAR": 0, "MEAN_MOTION_DOT": -5.4e-07, "MEAN_MOTION_DDOT": 0}, "tle": {"line1": "1 38098U 12011A   25341.14419655 -.00000054  00000+0  00000+0 0  9991", "line2": "2 38098   0.0103  33.7815 0001749 232.7098 293.6994  1.00271150  5265"}}, "geometry": {"type": "Point", "coordinates": [98.53031851427673, 0.0254079849629691]}}, {"type": "Feature", "properties": {"norad_id": 38356, "name": "INTELSAT 19 (IS-19)", "group": "intelsat", "lat": -0.0073498832959753395, "lon": -167.6113880156135, "alt_km": 35781.633042496986, "timestamp": "2025-12-07T20:38:13.745245+00:00", "meta": {"OBJECT_NAME": "INTELSAT 19 (IS-19)", "OBJECT_ID": "2012-030A", "EPOCH": "2025-12-07T05:51:52.119936", "MEAN_MOTION": 1.00270369, "ECCENTRICITY": 0.00035304, "INCLINATION": 0.0106, "RA_OF_ASC_NODE": 13.2827, "ARG_OF_PERICENTER": 250.2868, "MEAN_ANOMALY": 66.6704, "EPHEMERIS_TYPE": 0, "CLASSIFICATION_TYPE": "U", "NORAD_CAT_ID": 38356, "ELEMENT_SET_NO": 999, "REV_AT_EPOCH": 4852, "BSTAR": 0, "MEAN_MOTION_DOT": -5.2e-07, "MEAN_MOTION_DDOT": 0}, "tle": {"line1": "1 38356U 12030A   25341.24435324 -.00000052  00000+0  00000+0 0  9999", "line2": "2 38356   0.0106  13.2827 0003530 250.2868  66.6704  1.00270369 48525"}}, "geometry": {"type": "Point", "coordinates": [-167.6113880156135, -0.0073498832959753395]}}, {"type": "Feature", "properties": {"norad_id": 38740, "name": "INTELSAT 20 (IS-20)", "group": "intelsat", "lat": 0.003744515892564379, "lon": 94.90542689824414, "alt_km": 35785.81962612254, "timestamp": "2025-12-07T20:38:13.745257+00:00", "meta": {"OBJECT_NAME": "INTELSAT 20 (IS-20)", "OBJECT_ID": "2012-043A", "EPOCH": "2025-12-07T02:03:38.498400", "MEAN_MOTION": 1.00270865, "ECCENTRICITY": 0.00029761, "INCLINATION": 0.0012, "RA_OF_ASC_NODE": 67.5911, "ARG_OF_PERICENTER": 114.906, "MEAN_ANOMALY": 353.0414, "EPHEMERIS_TYPE": 0, "CLASSIFICATION_TYPE": "U", "NORAD_CAT_ID": 38740, "ELEMENT_SET_NO": 999, "REV_AT_EPOCH": 4882, "BSTAR": 0, "MEAN_MOTION_DOT": -1.9e-07, "MEAN_MOTION_DDOT": 0}, "tle": {"line1": "1 38740U 12043A   25341.08586225 -.00000019  00000+0  00000+0 0  9992", "line2": "2 38740   0.0012  67.5911 0002976 114.9060 353.0414  1.00270865 48822"}}, "geometry": {"type": "Point", "coordinates": [94.90542689824414, 0.003744515892564379]}}, {"type": "Feature", "properties": {"norad_id": 38749, "name": "INTELSAT 21 (IS-21)", "group": "intelsat", "lat": -0.013279149823001156, "lon": -31.543097360578084, "alt_km": 35784.07995716017, "timestamp": "2025-12-07T20:38:13.745269+00:00", "meta": {"OBJECT_NAME": "INTELSAT 21 (IS-21)", "OBJECT_ID": "2012-045A", "EPOCH": "2025-12-07T06:30:40.902336", "MEAN_MOTION": 1.00271038, "ECCENTRICITY": 0.00022479, "INCLINATION": 0.0164, "RA_OF_ASC_NODE": 353.1669, "ARG_OF_PERICENTER": 259.0702, "MEAN_ANOMALY": 223.7362, "EPHEMERIS_TYPE": 0, "CLASSIFICATION_TYPE": "U", "NORAD_CAT_ID": 38749, "ELEMENT_SET_NO": 999, "REV_AT_EPOCH": 4860, "BSTAR": 0, "MEAN_MOTION_DOT": -2.8e-06, "MEAN_MOTION_DDOT": 0}, "tle": {"line1": "1 38749U 12045A   25341.27130674 -.00000280  00000+0  00000+0 0  9997", "line2": "2 38749   0.0164 353.1669 0002247 259.0702 223.7362  1.00271038 48602"}}, "geometry": {"type": "Point", "coordinates": [-31.543097360578084, -0.013279149823001156]}}, {"type": "Feature", "properties": {"norad_id": 38867, "name": "INTELSAT 23 (IS-23)", "group": "intelsat", "lat": -0.03918330591432998, "lon": -26.59622951395842, "alt_km": 35789.34580064205, "timestamp": "2025-12-07T20:38:13.745295+00:00", "meta": {"OBJECT_NAME": "INTELSAT 23 (IS-23)", "OBJECT_ID": "2012-057A", "EPOCH": "2025-12-06T11:42:00.871776", "MEAN_MOTION": 1.00267666, "ECCENTRICITY": 0.00016876, "INCLINATION": 0.0474, "RA_OF_ASC_NODE": 98.6565, "ARG_OF_PERICENTER": 128.5865, "MEAN_ANOMALY": 330.7637, "EPHEMERIS_TYPE": 0, "CLASSIFICATION_TYPE": "U", "NORAD_CAT_ID": 38867, "ELEMENT_SET_NO": 999, "REV_AT_EPOCH": 4802, "BSTAR": 0, "MEAN_MOTION_DOT": -2.78e-06, "MEAN_MOTION_DDOT": 0}, "tle": {"line1": "1 38867U 12057A   25340.48751009 -.00000278  00000+0  00000+0 0  9991", "line2": "2 38867   0.0474  98.6565 0001687 128.5865 330.7637  1.00267666 48022"}}, "geometry": {"type": "Point", "coordinates": [-26.59622951395842, -0.03918330591432998]}}, {"type": "Feature", "properties": {"norad_id": 39360, "name": "FM-6", "group": "intelsat", "lat": 0.00016450139905003336, "lon": -89.69140597048032, "alt_km": 35788.367753958846, "timestamp": "2025-12-07T20:38:13.745309+00:00", "meta": {"OBJECT_NAME": "FM-6", "OBJECT_ID": "2013-058A", "EPOCH": "2025-12-07T01:30:10.601280", "MEAN_MOTION": 1.00268695, "ECCENTRICITY": 0.00031192, "INCLINATION": 0.0099, "RA_OF_ASC_NODE": 99.8238, "ARG_OF_PERICENTER": 74.0345, "MEAN_ANOMALY": 168.6312, "EPHEMERIS_TYPE": 0, "CLASSIFICATION_TYPE": "U", "NORAD_CAT_ID": 39360, "ELEMENT_SET_NO": 999, "REV_AT_EPOCH": 4414, "BSTAR": 0, "MEAN_MOTION_DOT": -1.1e-07, "MEAN_MOTION_DDOT": 0}, "tle": {"line1": "1 39360U 13058A   25341.06262270 -.00000011  00000+0  00000+0 0  9999", "line2": "2 39360   0.0099  99.8238 0003119  74.0345 168.6312  1.00268695 44144"}}, "geometry": {"type": "Point", "coordinates": [-89.69140597048032, 0.00016450139905003336]}}, {"type": "Feature", "properties": {"norad_id": 40271, "name": "INTELSAT 30 (IS-30)", "group": "intelsat", "lat": -0.031478264687055175, "lon": -68.63944790130364, "alt_km": 35790.8120674438, "timestamp": "2025-12-07T20:38:13.745321+00:00", "meta": {"OBJECT_NAME": "INTELSAT 30 (IS-30)", "OBJECT_ID": "2014-062A", "EPOCH": "2025-12-07T07:23:22.684416", "MEAN_MOTION": 1.00269737, "ECCENTRICITY": 0.00011563, "INCLINATION": 0.0141, "RA_OF_ASC_NODE": 18.2211, "ARG_OF_PERICENTER": 60.6068, "MEAN_ANOMALY": 13.2937, "EPHEMERIS_TYPE": 0, "CLASSIFICATION_TYPE": "U", "NORAD_CAT_ID": 40271, "ELEMENT_SET_NO": 999, "REV_AT_EPOCH": 486, "BSTAR": 0, "MEAN_MOTION_DOT": -1.46e-06, "MEAN_MOTION_DDOT": 0}, "tle": {"line1": "1 40271U 14062A   25341.30790144 -.00000146  00000+0  00000+0 0  9990", "line2": "2 40271   0.0141  18.2211 0001156  60.6068  13.2937  1.00269737  4864"}}, "geometry": {"type": "Point", "coordinates": [-68.63944790130364, -0.031478264687055175]}}, {"type": "Feature", "properties": {"norad_id": 40333, "name": "DIRECTV 14", "group": "intelsat", "lat": -0.03302285131718212, "lon": -72.7934609228878, "alt_km": 35785.767530194345, "timestamp": "2025-12-07T20:38:13.745334+00:00", "meta": {"OBJECT_NAME": "DIRECTV 14", "OBJECT_ID": "2014-078B", "EPOCH": "2025-12-07T07:20:22.739136", "MEAN_MOTION": 1.00270193, "ECCENTRICITY": 3.122e-05, "INCLINATION": 0.0179, "RA_OF_ASC_NODE": 340.3024, "ARG_OF_PERICENTER": 252.883, "MEAN_ANOMALY": 214.0195, "EPHEMERIS_TYPE": 0, "CLASSIFICATION_TYPE": "U", "NORAD_CAT_ID": 40333, "ELEMENT_SET_NO": 999, "REV_AT_EPOCH": 4012, "BSTAR": 0, "MEAN_MOTION_DOT": -1.21e-06, "MEAN_MOTION_DDOT": 0}, "tle": {"line1": "1 40333U 14078B   25341.30581874 -.00000121  00000+0  00000+0 0  9997", "line2": "2 40333   0.0179 340.3024 0000312 252.8830 214.0195  1.00270193 40124"}}, "geometry": {"type": "Point", "coordinates": [-72.7934609228878, -0.03302285131718212]}}, {"type": "Feature", "properties": {"norad_id": 40663, "name": "DIRECTV 15", "group": "intelsat", "lat": -0.03154994896160865, "lon": -76.43244621781768, "alt_km": 35785.38265122155, "timestamp": "2025-12-07T20:38:13.745346+00:00", "meta": {"OBJECT_NAME": "DIRECTV 15", "OBJECT_ID": "2015-026A", "EPOCH": "2025-12-06T21:44:10.308768", "MEAN_MOTION": 1.00270123, "ECCENTRICITY": 4.561e-05, "INCLINATION": 0.0385, "RA_OF_ASC_NODE": 80.1364, "ARG_OF_PERICENTER": 150.8974, "MEAN_ANOMALY": 68.0869, "EPHEMERIS_TYPE": 0, "CLASSIFICATION_TYPE": "U", "NORAD_CAT_ID": 40663, "ELEMENT_SET_NO": 999, "REV_AT_EPOCH": 3853, "BSTAR": 0, "MEAN_MOTION_DOT": -9.7e-07, "MEAN_MOTION_DDOT": 0}, "tle": {"line1": "1 40663U 15026A   25340.90567487 -.00000097  00000+0  00000+0 0  9998", "line2": "2 40663   0.0385  80.1364 0000456 150.8974  68.0869  1.00270123 38530"}}, "geometry": {"type": "Point", "coordinates": [-76.43244621781768, -0.03154994896160865]}}]}